[{"OBJECT_NAME":"ISS OBJECT XU","OBJECT_ID":"1998-067XU","EPOCH":"2026-03-09T04:46:29.551296","MEAN_MOTION":15.69191892,"ECCENTRICITY":0.00048935,"INCLINATION":51.6248,"RA_OF_ASC_NODE":68.1144,"ARG_OF_PERICENTER":76.6698,"MEAN_ANOMALY":283.4844,"EPHEMERIS_TYPE":0,"CLASSIFICATION_TYPE":"U","NORAD_CAT_ID":66908,"ELEMENT_SET_NO":999,"REV_AT_EPOCH":1510,"BSTAR":0.0013351438,"MEAN_MOTION_DOT":0.00161175,"MEAN_MOTION_DDOT":0},{"OBJECT_NAME":"ATLAS 2AS CENTAUR R\/B","OBJECT_ID":"2000-080B","EPOCH":"2026-03-09T03:51:46.075680","MEAN_MOTION":4.26996002,"ECCENTRICITY":0.58679785,"INCLINATION":26.2843,"RA_OF_ASC_NODE":29.3251,"ARG_OF_PERICENTER":224.5883,"MEAN_ANOMALY":69.7154,"EPHEMERIS_TYPE":0,"CLASSIFICATION_TYPE":"U","NORAD_CAT_ID":26636,"ELEMENT_SET_NO":999,"REV_AT_EPOCH":9221,"BSTAR":0.0011042634,"MEAN_MOTION_DOT":0.00010092,"MEAN_MOTION_DDOT":0}]
